{
    "links": {
        "self": "http://www.neowsapp.com/rest/v1/neo/3325676?api_key=iIulBulltgU6a56xZRHN4H3l9WmuAYTsLGpBGhQ2"
    },
    "id": "3325676",
    "neo_reference_id": "3325676",
    "name": "(2006 EF1)",
    "designation": "2006 EF1",
    "nasa_jpl_url": "http://ssd.jpl.nasa.gov/sbdb.cgi?sstr=3325676",
    "absolute_magnitude_h": 22.8,
    "estimated_diameter": {
        "kilometers": {
            "estimated_diameter_min": 0.0732073989,
            "estimated_diameter_max": 0.1636967205
        },
        "meters": {
            "estimated_diameter_min": 73.2073989347,
            "estimated_diameter_max": 163.696720474
        },
        "miles": {
            "estimated_diameter_min": 0.0454889547,
            "estimated_diameter_max": 0.1017163949
        },
        "feet": {
            "estimated_diameter_min": 240.181762721,
            "estimated_diameter_max": 537.0627483999
        }
    },
    "is_potentially_hazardous_asteroid": false,
    "close_approach_data": [
        {
            "close_approach_date": "2006-03-22",
            "close_approach_date_full": "2006-Mar-22 19:58",
            "epoch_date_close_approach": 1143057480000,
            "relative_velocity": {
                "kilometers_per_second": "9.2276725966",
                "kilometers_per_hour": "33219.6213478653",
                "miles_per_hour": "20641.3808314"
            },
            "miss_distance": {
                "astronomical": "0.1953253103",
                "lunar": "75.9815457067",
                "kilometers": "29220250.377969061",
                "miles": "18156621.6511366018"
            },
            "orbiting_body": "Earth"
        }
    ],
    "orbital_data": {
        "orbit_id": "10",
        "orbit_determination_date": "2017-04-06 09:13:45",
        "first_observation_date": "2006-03-05",
        "last_observation_date": "2006-03-09",
        "data_arc_in_days": 4,
        "observations_used": 19,
        "orbit_uncertainty": "9",
        "minimum_orbit_intersection": ".0284074",
        "jupiter_tisserand_invariant": "5.010",
        "epoch_osculation": "2453801.5",
        "eccentricity": ".3445676066441473",
        "semi_major_axis": "1.26590703615702",
        "inclination": "13.7320985206949",
        "ascending_node_longitude": "328.3012863992401",
        "orbital_period": "520.2368932842751",
        "perihelion_distance": ".8297164784744098",
        "perihelion_argument": "296.4222967191378",
        "aphelion_distance": "1.702097593839631",
        "perihelion_time": "2453889.420856610664",
        "mean_anomaly": "299.1594314274371",
        "mean_motion": ".6919924454555817",
        "equinox": "J2000",
        "orbit_class": {
            "orbit_class_type": "APO",
            "orbit_class_description": "Near-Earth asteroid orbits which cross the Earth’s orbit similar to that of 1862 Apollo",
            "orbit_class_range": "a (semi-major axis) > 1.0 AU; q (perihelion) < 1.017 AU"
        }
    },
    "is_sentry_object": false
}